[{"OBJECT_NAME":"LEMUR-2-BALTO","OBJECT_ID":"2025-052BH","EPOCH":"2026-03-09T16:40:42.002112","MEAN_MOTION":14.98934076,"ECCENTRICITY":0.00022794,"INCLINATION":97.6978,"RA_OF_ASC_NODE":323.5166,"ARG_OF_PERICENTER":359.2852,"MEAN_ANOMALY":0.8367,"EPHEMERIS_TYPE":0,"CLASSIFICATION_TYPE":"U","NORAD_CAT_ID":63395,"ELEMENT_SET_NO":999,"REV_AT_EPOCH":5385,"BSTAR":0.00063455958,"MEAN_MOTION_DOT":7.621e-5,"MEAN_MOTION_DDOT":0},{"OBJECT_NAME":"STARLINK-34424","OBJECT_ID":"2025-123E","EPOCH":"2026-03-09T22:00:01.999584","MEAN_MOTION":14.98349951,"ECCENTRICITY":0.0004039,"INCLINATION":70.0008,"RA_OF_ASC_NODE":194.059,"ARG_OF_PERICENTER":276.3711,"MEAN_ANOMALY":238.0798,"EPHEMERIS_TYPE":0,"CLASSIFICATION_TYPE":"U","NORAD_CAT_ID":64295,"ELEMENT_SET_NO":999,"REV_AT_EPOCH":556,"BSTAR":-0.002329989,"MEAN_MOTION_DOT":-0.00027801,"MEAN_MOTION_DDOT":0}]
